[{"OBJECT_NAME":"STARLINK-36069","OBJECT_ID":"2025-278R","EPOCH":"2026-03-09T03:45:58.421952","MEAN_MOTION":15.27587272,"ECCENTRICITY":4.225e-5,"INCLINATION":42.9949,"RA_OF_ASC_NODE":117.7185,"ARG_OF_PERICENTER":290.9114,"MEAN_ANOMALY":69.1692,"EPHEMERIS_TYPE":0,"CLASSIFICATION_TYPE":"U","NORAD_CAT_ID":66806,"ELEMENT_SET_NO":999,"REV_AT_EPOCH":1512,"BSTAR":0.0011277484,"MEAN_MOTION_DOT":0.00030908,"MEAN_MOTION_DDOT":0},{"OBJECT_NAME":"OBJECT L","OBJECT_ID":"2024-024L","EPOCH":"2026-03-09T22:36:05.522976","MEAN_MOTION":15.29373491,"ECCENTRICITY":0.00073185,"INCLINATION":97.3169,"RA_OF_ASC_NODE":137.7038,"ARG_OF_PERICENTER":167.6369,"MEAN_ANOMALY":192.5052,"EPHEMERIS_TYPE":0,"CLASSIFICATION_TYPE":"U","NORAD_CAT_ID":58927,"ELEMENT_SET_NO":999,"REV_AT_EPOCH":9318,"BSTAR":0.00043092344,"MEAN_MOTION_DOT":0.00012217,"MEAN_MOTION_DDOT":0}]
